ONEWEB-0281             
1 48999U 21060AJ  23300.04544783 -.00000040  00000+0 -13948-3 0  9994
2 48999  87.9070  60.6544 0001920  98.1524 261.9825 13.16596043114072
ONEWEB-0282             
1 49000U 21060AK  23300.37897600  .00000501  00000+0  12759-2 0  9991
2 49000  87.9067  60.6043 0001332  90.4791 269.6492 13.16594212114109
ONEWEB-0283             
1 49001U 21060AL  23300.36842226  .00000007  00000+0 -15228-4 0  9993
2 49001  87.9129  60.6177 0001582  85.0356 275.0956 13.16591878114113
ONEWEB-0284             
1 49002U 21060AM  23300.05811298 -.00000047  00000+0 -15561-3 0  9999
2 49002  87.9052  60.6810 0001361  93.4890 266.6397 13.16592837114047
ONEWEB-0285             
1 49075U 21075A   23300.19484979  .00000258  00000+0  68235-3 0  9990
2 49075  87.9053 182.3532 0001591  73.6538 286.4765 13.12439396109741
ONEWEB-0286             
1 49076U 21075B   23300.39390549 -.00000298  00000+0 -86321-3 0  9994
2 49076  87.9055 182.3236 0001966  87.7812 272.3541 13.12445466109125
ONEWEB-0287             
1 49077U 21075C   23300.46256393  .00001784  00000+0  45608-2 0  9992
2 49077  87.9244 197.4060 0001665  84.0432 276.0889 13.17641707107688
ONEWEB-0288             
1 49078U 21075D   23300.15038043 -.00000124  00000+0 -38062-3 0  9995
2 49078  87.9056 182.3770 0001633  82.0940 278.0374 13.12441842109729
